METHANESAT              
1 59101U 24043D   26095.91722036  .00004535  00000+0  39097-3 0  9998
2 59101  97.8344 226.6666 0008619 246.9569 113.0744 14.97793423113837
GOSAT-GW (IBUKI GW)     
1 64694U 25141A   26096.25875499  .00001610  00000+0  29219-3 0  9997
2 64694  98.0532  34.7615 0001376  83.4139 276.7223 14.67551843 41298
GHGSAT-C1               
1 46278U 20061G   26096.27969556  .00039005  00000+0  37326-3 0  9998
2 46278  97.2120 179.3090 0000051 257.6103 102.5152 15.66602116312207
GHGSAT-C12              
1 64529U 25135B   26096.16473395  .00004779  00000+0  22615-3 0  9998
2 64529  97.4654 211.6722 0006357  72.2826 287.9102 15.19821472 43884
GHGSAT-C13              
1 64548U 25135W   26096.26814749  .00004876  00000+0  22632-3 0  9999
2 64548  97.4682 212.2368 0001940  55.8127 304.3292 15.20494397 43926
GHGSAT-C2               
1 47509U 21006DA  26096.09609750  .00007953  00000+0  22206-3 0  9991
2 47509  97.2230 144.6018 0006845  75.2327 284.9676 15.36958771288779
GHGSAT-C3               
1 52737U 22057F   26096.28399541  .00009535  00000+0  29731-3 0  9990
2 52737  97.6490 239.3417 0006409  29.6398 330.5206 15.33445897214517
GHGSAT-C4               
1 52746U 22057Q   26096.23858382  .00009207  00000+0  28733-3 0  9995
2 52746  97.6415 238.1992 0006267  15.2945 344.8485 15.33429943214511
GHGSAT-C5               
1 52744U 22057N   26096.32187191  .00008949  00000+0  27940-3 0  9997
2 52744  97.6581 240.8714 0007125  23.4634 336.6932 15.33422338214523
GHGSAT-C6               
1 56204U 23054AC  26096.23093326  .00018880  00000+0  32740-3 0  9995
2 56204  97.3094   4.9459 0004789 316.5468  43.5406 15.50915003167299
GHGSAT-C7               
1 56209U 23054AH  26096.23750550  .00014053  00000+0  26660-3 0  9991
2 56209  97.3049   3.7621 0005801 306.3994  53.6721 15.48407610167254
GHGSAT-C8               
1 56186U 23054J   26096.26638306  .00018279  00000+0  31681-3 0  9995
2 56186  97.3045   4.3560 0004086 358.1837   1.9400 15.50938501167282
SENTINEL-5P             
1 42969U 17064A   26096.23535376  .00000108  00000+0  72073-4 0  9996
2 42969  98.7919  38.8848 0001233  88.1390 271.9928 14.19506358439356
ENMAP                   
1 52159U 22033C   26096.25602108  .00004113  00000+0  61863-3 0  9994
2 52159  97.9795 179.5259 0001538 104.2159 255.9221 14.75007783216059
PRISMA                  
1 44072U 19015A   26096.24804302  .00001748  00000+0  21799-3 0  9999
2 44072  97.8673 172.0807 0001452  88.0852 272.0529 14.83692283381383
SENTINEL-2A             
1 40697U 15028A   26096.25669778  .00000184  00000+0  86777-4 0  9996
2 40697  98.5640 172.1444 0001325  92.8566 267.2769 14.30818194563440
SENTINEL-2B             
1 42063U 17013A   26096.24945472  .00000260  00000+0  11576-3 0  9997
2 42063  98.5667 172.0478 0001200  95.6458 264.4862 14.30819021474351
SENTINEL-2C             
1 60989U 24157A   26096.21449164  .00000170  00000+0  81617-4 0  9999
2 60989  98.5649 172.0306 0001257 114.4009 245.7305 14.30825064 82692
LANDSAT 8               
1 39084U 13008A   26096.19668356  .00000490  00000+0  11885-3 0  9991
2 39084  98.1872 167.4640 0001203  91.1953 268.9384 14.57112086687414
LANDSAT 9               
1 49260U 21088A   26096.16252105  .00000516  00000+0  12449-3 0  9999
2 49260  98.1892 167.4983 0001183  98.4395 261.6938 14.57126697240514
TANAGER-1               
1 60507U 24149AR  26096.24469968  .00019856  00000+0  43869-3 0  9990
2 60507  97.3718 189.9984 0007218 194.4210 165.6834 15.43863586 91936
